{"type": "FeatureCollection", "features": [{"type": "Feature", "properties": {"norad_id": 22675, "name": "COSMOS 2251", "group": "cosmos-2251-debris", "lat": 3.7967558039175566, "lon": 116.99626239909334, "alt_km": 799.3075599256163, "timestamp": "2025-12-22T11:33:20.832442+00:00", "meta": {"OBJECT_NAME": "COSMOS 2251", "OBJECT_ID": "1993-036A", "EPOCH": "2025-12-21T23:00:42.633792", "MEAN_MOTION": 14.33207297, "ECCENTRICITY": 0.0024335, "INCLINATION": 74.04, "RA_OF_ASC_NODE": 299.039, "ARG_OF_PERICENTER": 18.7656, "MEAN_ANOMALY": 341.4386, "EPHEMERIS_TYPE": 0, "CLASSIFICATION_TYPE": "U", "NORAD_CAT_ID": 22675, "ELEMENT_SET_NO": 999, "REV_AT_EPOCH": 69905, "BSTAR": 4.3757e-05, "MEAN_MOTION_DOT": 9.5e-07, "MEAN_MOTION_DDOT": 0}, "tle": {"line1": "1 22675U 93036A   25355.95882678  .00000095  00000+0  43757-4 0  9999", "line2": "2 22675  74.0400 299.0390 0024335  18.7656 341.4386 14.33207297699057"}}, "geometry": {"type": "Point", "coordinates": [116.99626239909334, 3.7967558039175566]}}, {"type": "Feature", "properties": {"norad_id": 33757, "name": "COSMOS 2251 DEB", "group": "cosmos-2251-debris", "lat": -12.257335526607987, "lon": 129.3907151457118, "alt_km": 793.5283698995736, "timestamp": "2025-12-22T11:33:20.832466+00:00", "meta": {"OBJECT_NAME": "COSMOS 2251 DEB", "OBJECT_ID": "1993-036E", "EPOCH": "2025-12-22T00:58:07.280256", "MEAN_MOTION": 14.32583276, "ECCENTRICITY": 0.0015569, "INCLINATION": 74.0374, "RA_OF_ASC_NODE": 306.6305, "ARG_OF_PERICENTER": 318.4186, "MEAN_ANOMALY": 120.248, "EPHEMERIS_TYPE": 0, "CLASSIFICATION_TYPE": "U", "NORAD_CAT_ID": 33757, "ELEMENT_SET_NO": 999, "REV_AT_EPOCH": 88129, "BSTAR": 4.0449e-05, "MEAN_MOTION_DOT": 8.4e-07, "MEAN_MOTION_DDOT": 0}, "tle": {"line1": "1 33757U 93036E   25356.04036204  .00000084  00000+0  40449-4 0  9992", "line2": "2 33757  74.0374 306.6305 0015569 318.4186 120.2480 14.32583276881298"}}, "geometry": {"type": "Point", "coordinates": [129.3907151457118, -12.257335526607987]}}, {"type": "Feature", "properties": {"norad_id": 33758, "name": "COSMOS 2251 DEB", "group": "cosmos-2251-debris", "lat": 73.37333625461295, "lon": -89.74229215141719, "alt_km": 725.0840620243771, "timestamp": "2025-12-22T11:33:20.832481+00:00", "meta": {"OBJECT_NAME": "COSMOS 2251 DEB", "OBJECT_ID": "1993-036F", "EPOCH": "2025-12-22T00:18:23.397120", "MEAN_MOTION": 14.51644843, "ECCENTRICITY": 0.0017195, "INCLINATION": 74.0263, "RA_OF_ASC_NODE": 197.5632, "ARG_OF_PERICENTER": 263.6806, "MEAN_ANOMALY": 253.1979, "EPHEMERIS_TYPE": 0, "CLASSIFICATION_TYPE": "U", "NORAD_CAT_ID": 33758, "ELEMENT_SET_NO": 999, "REV_AT_EPOCH": 88439, "BSTAR": 0.00070194, "MEAN_MOTION_DOT": 2.793e-05, "MEAN_MOTION_DDOT": 0}, "tle": {"line1": "1 33758U 93036F   25356.01277080  .00002793  00000+0  70194-3 0  9997", "line2": "2 33758  74.0263 197.5632 0017195 263.6806 253.1979 14.51644843884395"}}, "geometry": {"type": "Point", "coordinates": [-89.74229215141719, 73.37333625461295]}}, {"type": "Feature", "properties": {"norad_id": 33760, "name": "COSMOS 2251 DEB", "group": "cosmos-2251-debris", "lat": -8.207420928695685, "lon": 85.94502867031554, "alt_km": 790.7613023307922, "timestamp": "2025-12-22T11:33:20.832493+00:00", "meta": {"OBJECT_NAME": "COSMOS 2251 DEB", "OBJECT_ID": "1993-036H", "EPOCH": "2025-12-22T04:44:36.166848", "MEAN_MOTION": 14.35678645, "ECCENTRICITY": 0.0020285, "INCLINATION": 74.0321, "RA_OF_ASC_NODE": 264.0989, "ARG_OF_PERICENTER": 0.1439, "MEAN_ANOMALY": 161.8415, "EPHEMERIS_TYPE": 0, "CLASSIFICATION_TYPE": "U", "NORAD_CAT_ID": 33760, "ELEMENT_SET_NO": 999, "REV_AT_EPOCH": 88260, "BSTAR": 9.9555e-05, "MEAN_MOTION_DOT": 2.62e-06, "MEAN_MOTION_DDOT": 0}, "tle": {"line1": "1 33760U 93036H   25356.19764082  .00000262  00000+0  99555-4 0  9994", "line2": "2 33760  74.0321 264.0989 0020285   0.1439 161.8415 14.35678645882609"}}, "geometry": {"type": "Point", "coordinates": [85.94502867031554, -8.207420928695685]}}, {"type": "Feature", "properties": {"norad_id": 33761, "name": "COSMOS 2251 DEB", "group": "cosmos-2251-debris", "lat": -1.455120712078556, "lon": -126.3277468893918, "alt_km": 741.2187942382989, "timestamp": "2025-12-22T11:33:20.832503+00:00", "meta": {"OBJECT_NAME": "COSMOS 2251 DEB", "OBJECT_ID": "1993-036J", "EPOCH": "2025-12-21T22:19:07.214304", "MEAN_MOTION": 14.42569564, "ECCENTRICITY": 0.0023273, "INCLINATION": 74.0352, "RA_OF_ASC_NODE": 235.1119, "ARG_OF_PERICENTER": 314.0482, "MEAN_ANOMALY": 61.202, "EPHEMERIS_TYPE": 0, "CLASSIFICATION_TYPE": "U", "NORAD_CAT_ID": 33761, "ELEMENT_SET_NO": 999, "REV_AT_EPOCH": 88367, "BSTAR": 0.00034386, "MEAN_MOTION_DOT": 1.118e-05, "MEAN_MOTION_DDOT": 0}, "tle": {"line1": "1 33761U 93036J   25355.92994461  .00001118  00000+0  34386-3 0  9992", "line2": "2 33761  74.0352 235.1119 0023273 314.0482  61.2020 14.42569564883673"}}, "geometry": {"type": "Point", "coordinates": [-126.3277468893918, -1.455120712078556]}}, {"type": "Feature", "properties": {"norad_id": 33762, "name": "COSMOS 2251 DEB", "group": "cosmos-2251-debris", "lat": 52.888118028242666, "lon": -45.5625145686041, "alt_km": 769.4858702875163, "timestamp": "2025-12-22T11:33:20.832514+00:00", "meta": {"OBJECT_NAME": "COSMOS 2251 DEB", "OBJECT_ID": "1993-036K", "EPOCH": "2025-12-21T22:12:54.114048", "MEAN_MOTION": 14.33666399, "ECCENTRICITY": 0.0015382, "INCLINATION": 74.0421, "RA_OF_ASC_NODE": 293.2326, "ARG_OF_PERICENTER": 352.4689, "MEAN_ANOMALY": 75.697, "EPHEMERIS_TYPE": 0, "CLASSIFICATION_TYPE": "U", "NORAD_CAT_ID": 33762, "ELEMENT_SET_NO": 999, "REV_AT_EPOCH": 88179, "BSTAR": 4.5732e-05, "MEAN_MOTION_DOT": 1.01e-06, "MEAN_MOTION_DDOT": 0}, "tle": {"line1": "1 33762U 93036K   25355.92562632  .00000101  00000+0  45732-4 0  9993", "line2": "2 33762  74.0421 293.2326 0015382 352.4689  75.6970 14.33666399881791"}}, "geometry": {"type": "Point", "coordinates": [-45.5625145686041, 52.888118028242666]}}, {"type": "Feature", "properties": {"norad_id": 33764, "name": "COSMOS 2251 DEB", "group": "cosmos-2251-debris", "lat": 38.93727336730053, "lon": -91.95599923661514, "alt_km": 773.5375717459301, "timestamp": "2025-12-22T11:33:20.832525+00:00", "meta": {"OBJECT_NAME": "COSMOS 2251 DEB", "OBJECT_ID": "1993-036M", "EPOCH": "2025-12-21T23:44:33.905184", "MEAN_MOTION": 14.39528553, "ECCENTRICITY": 0.0023532, "INCLINATION": 74.0334, "RA_OF_ASC_NODE": 255.5776, "ARG_OF_PERICENTER": 219.5942, "MEAN_ANOMALY": 151.569, "EPHEMERIS_TYPE": 0, "CLASSIFICATION_TYPE": "U", "NORAD_CAT_ID": 33764, "ELEMENT_SET_NO": 999, "REV_AT_EPOCH": 88290, "BSTAR": 0.00027071, "MEAN_MOTION_DOT": 8.21e-06, "MEAN_MOTION_DDOT": 0}, "tle": {"line1": "1 33764U 93036M   25355.98928131  .00000821  00000+0  27071-3 0  9995", "line2": "2 33764  74.0334 255.5776 0023532 219.5942 151.5690 14.39528553882909"}}, "geometry": {"type": "Point", "coordinates": [-91.95599923661514, 38.93727336730053]}}, {"type": "Feature", "properties": {"norad_id": 33765, "name": "COSMOS 2251 DEB", "group": "cosmos-2251-debris", "lat": -7.523559065683851, "lon": -24.87472717081642, "alt_km": 512.8347686166699, "timestamp": "2025-12-22T11:33:20.832536+00:00", "meta": {"OBJECT_NAME": "COSMOS 2251 DEB", "OBJECT_ID": "1993-036N", "EPOCH": "2025-12-22T03:19:16.051008", "MEAN_MOTION": 15.10475433, "ECCENTRICITY": 0.0064947, "INCLINATION": 74.0085, "RA_OF_ASC_NODE": 153.6643, "ARG_OF_PERICENTER": 244.2417, "MEAN_ANOMALY": 239.1302, "EPHEMERIS_TYPE": 0, "CLASSIFICATION_TYPE": "U", "NORAD_CAT_ID": 33765, "ELEMENT_SET_NO": 999, "REV_AT_EPOCH": 89760, "BSTAR": 0.0017852, "MEAN_MOTION_DOT": 0.00030997, "MEAN_MOTION_DDOT": 0}, "tle": {"line1": "1 33765U 93036N   25356.13838022  .00030997  00000+0  17852-2 0  9995", "line2": "2 33765  74.0085 153.6643 0064947 244.2417 239.1302 15.10475433897605"}}, "geometry": {"type": "Point", "coordinates": [-24.87472717081642, -7.523559065683851]}}, {"type": "Feature", "properties": {"norad_id": 33766, "name": "COSMOS 2251 DEB", "group": "cosmos-2251-debris", "lat": -70.59058870068718, "lon": 63.7367283572138, "alt_km": 744.8908289427118, "timestamp": "2025-12-22T11:33:20.832546+00:00", "meta": {"OBJECT_NAME": "COSMOS 2251 DEB", "OBJECT_ID": "1993-036P", "EPOCH": "2025-12-22T01:52:41.100672", "MEAN_MOTION": 14.34960236, "ECCENTRICITY": 0.0064643, "INCLINATION": 74.1858, "RA_OF_ASC_NODE": 118.021, "ARG_OF_PERICENTER": 318.8316, "MEAN_ANOMALY": 40.797, "EPHEMERIS_TYPE": 0, "CLASSIFICATION_TYPE": "U", "NORAD_CAT_ID": 33766, "ELEMENT_SET_NO": 999, "REV_AT_EPOCH": 87879, "BSTAR": 0.00047478, "MEAN_MOTION_DOT": 1.358e-05, "MEAN_MOTION_DDOT": 0}, "tle": {"line1": "1 33766U 93036P   25356.07825348  .00001358  00000+0  47478-3 0  9993", "line2": "2 33766  74.1858 118.0210 0064643 318.8316  40.7970 14.34960236878790"}}, "geometry": {"type": "Point", "coordinates": [63.7367283572138, -70.59058870068718]}}, {"type": "Feature", "properties": {"norad_id": 33768, "name": "COSMOS 2251 DEB", "group": "cosmos-2251-debris", "lat": 50.01630019736899, "lon": -135.93882483914726, "alt_km": 866.7957929877166, "timestamp": "2025-12-22T11:33:20.832557+00:00", "meta": {"OBJECT_NAME": "COSMOS 2251 DEB", "OBJECT_ID": "1993-036R", "EPOCH": "2025-12-22T01:17:04.870176", "MEAN_MOTION": 13.58462622, "ECCENTRICITY": 0.0366753, "INCLINATION": 74.0666, "RA_OF_ASC_NODE": 204.8363, "ARG_OF_PERICENTER": 0.5492, "MEAN_ANOMALY": 116.8883, "EPHEMERIS_TYPE": 0, "CLASSIFICATION_TYPE": "U", "NORAD_CAT_ID": 33768, "ELEMENT_SET_NO": 999, "REV_AT_EPOCH": 83422, "BSTAR": 0.00030354, "MEAN_MOTION_DOT": 3.21e-06, "MEAN_MOTION_DDOT": 0}, "tle": {"line1": "1 33768U 93036R   25356.05352859  .00000321  00000+0  30354-3 0  9999", "line2": "2 33768  74.0666 204.8363 0366753   0.5492 116.8883 13.58462622834227"}}, "geometry": {"type": "Point", "coordinates": [-135.93882483914726, 50.01630019736899]}}]}